[{"OBJECT_NAME":"HAIYANG 4-01","OBJECT_ID":"2024-208A","EPOCH":"2026-03-09T23:12:53.957952","MEAN_MOTION":14.73328674,"ECCENTRICITY":0.00022294,"INCLINATION":98.0072,"RA_OF_ASC_NODE":78.0681,"ARG_OF_PERICENTER":108.1992,"MEAN_ANOMALY":251.9459,"EPHEMERIS_TYPE":0,"CLASSIFICATION_TYPE":"U","NORAD_CAT_ID":61936,"ELEMENT_SET_NO":999,"REV_AT_EPOCH":7083,"BSTAR":0.00012921781,"MEAN_MOTION_DOT":7.86e-6,"MEAN_MOTION_DDOT":0},{"OBJECT_NAME":"CZ-2D R\/B","OBJECT_ID":"2022-165B","EPOCH":"2026-03-09T17:48:45.069120","MEAN_MOTION":14.68619758,"ECCENTRICITY":0.00335391,"INCLINATION":98.1483,"RA_OF_ASC_NODE":11.8589,"ARG_OF_PERICENTER":146.4003,"MEAN_ANOMALY":213.9338,"EPHEMERIS_TYPE":0,"CLASSIFICATION_TYPE":"U","NORAD_CAT_ID":54641,"ELEMENT_SET_NO":999,"REV_AT_EPOCH":17401,"BSTAR":0.00016860333,"MEAN_MOTION_DOT":9.37e-6,"MEAN_MOTION_DDOT":0}]
